BEIDOU-2 IGSO-1 (C06)   
1 36828U 10036A   25160.46519424 -.00000029  00000+0  00000+0 0  9996
2 36828  54.2749 166.3307 0049511 217.9309 148.8229  1.00279769 54360
BEIDOU-2 G4 (C04)       
1 37210U 10057A   25160.41374576 -.00000094  00000+0  00000+0 0  9999
2 37210   2.7219  70.4661 0004149 185.5933 310.9458  1.00272300 53555
BEIDOU-2 IGSO-2 (C07)   
1 37256U 10068A   25159.75944906 -.00000218  00000+0  00000+0 0  9994
2 37256  48.2233 276.4555 0046389 213.0481 147.4285  1.00293183 53051
BEIDOU-2 IGSO-3 (C08)   
1 37384U 11013A   25159.60469288 -.00000198  00000+0  00000+0 0  9993
2 37384  61.8729  43.6896 0030576 177.5261   1.8529  1.00269049 51918
BEIDOU-2 IGSO-4 (C09)   
1 37763U 11038A   25159.50882549  .00000065  00000+0  00000+0 0  9991
2 37763  54.5772 169.0169 0143758 231.1931 134.9810  1.00279951 50902
BEIDOU-2 IGSO-5 (C10)   
1 37948U 11073A   25158.75342616 -.00000213  00000+0  00000+0 0  9993
2 37948  48.3615 276.1704 0107533 219.9540 125.7871  1.00290921 49374
BEIDOU-2 G5 (C05)       
1 38091U 12008A   25159.73506602  .00000075  00000+0  00000+0 0  9993
2 38091   2.6434  71.2691 0008264 270.7587 238.7349  1.00267994 48628
BEIDOU-2 M3 (C11)       
1 38250U 12018A   25158.93060203 -.00000092  00000+0  00000+0 0  9994
2 38250  56.0748 317.4609 0020701 268.2467  91.4996  1.86233788 88971
BEIDOU-2 M4 (C12)       
1 38251U 12018B   25158.86264865 -.00000092  00000+0  00000+0 0  9997
2 38251  55.9783 316.7075 0011606 269.9129  89.9372  1.86232192 88973
BEIDOU-2 M6 (C14)       
1 38775U 12050B   25159.10988800 -.00000070  00000+0  00000+0 0  9990
2 38775  56.2129  75.2957 0014032 347.6438  12.3156  1.86231163 86347
BEIDOU-2 G6 (C02)       
1 38953U 12059A   25160.45468065 -.00000159  00000+0  00000+0 0  9991
2 38953   3.4741  77.4080 0009885 318.7287 109.6442  1.00274141 46175
BEIDOU-3S IGSO-1S (C31) 
1 40549U 15019A   25159.26437300 -.00000196  00000+0  00000+0 0  9990
2 40549  49.9055 299.9581 0039490 191.8302 315.1889  1.00280545 37323
BEIDOU-3S M2S (C58)     
1 40748U 15037A   25159.60275011 -.00000091  00000+0  00000+0 0  9992
2 40748  55.1993 314.8787 0008501 253.5423 106.3456  1.86229348 67161
BEIDOU-3S M1S (C57)     
1 40749U 15037B   25159.32079364 -.00000092  00000+0  00000+0 0  9996
2 40749  55.1961 314.8802 0003356  26.3511 333.6476  1.86253998 67167
BEIDOU-3S IGSO-2S (C56) 
1 40938U 15053A   25159.70129279 -.00000147  00000+0  00000+0 0  9998
2 40938  49.7998 263.2188 0059283 188.6335 153.9344  1.00269636 35609
BEIDOU-2 IGSO-6 (C13)   
1 41434U 16021A   25159.64385023 -.00000167  00000+0  00000+0 0  9992
2 41434  59.6980  41.7654 0054053 229.2349 312.3958  1.00289361 33737
BEIDOU-2 G7 (C03)       
1 41586U 16037A   25160.46799187 -.00000335  00000+0  00000+0 0  9996
2 41586   1.7462  68.8530 0010420   9.8809  98.4337  1.00272332  3150
BEIDOU-3 M1 (C19)       
1 43001U 17069A   25159.41250531 -.00000069  00000+0  00000+0 0  9998
2 43001  56.3621  75.4284 0010848 316.9896  42.9201  1.86231558 51649
BEIDOU-3 M2 (C20)       
1 43002U 17069B   25158.27655736 -.00000072  00000+0  00000+0 0  9992
2 43002  56.3604  75.5018 0009294 341.0756  18.8820  1.86230958 51613
BEIDOU-3 M7 (C27)       
1 43107U 18003A   25158.02215429 -.00000096  00000+0  00000+0 0  9997
2 43107  54.6593 315.3673 0004736  84.3527 275.6851  1.86232686 50366
BEIDOU-3 M8 (C28)       
1 43108U 18003B   25159.57635734 -.00000092  00000+0  00000+0 0  9990
2 43108  54.6507 315.2973 0002612 258.2248 101.7277  1.86231135 50401
BEIDOU-3 M4 (C22)       
1 43207U 18018A   25159.48069647 -.00000068  00000+0  00000+0 0  9993
2 43207  56.3210  75.5029 0007383   6.8266 353.1777  1.86231461 49785
BEIDOU-3 M3 (C21)       
1 43208U 18018B   25159.01028200 -.00000070  00000+0  00000+0 0  9996
2 43208  56.3201  75.5226 0008936 330.7101  29.2331  1.86231369 49770
BEIDOU-3 M9 (C29)       
1 43245U 18029A   25159.76502944 -.00000090  00000+0  00000+0 0  9995
2 43245  54.5307 312.9795 0000629 143.7385 216.2461  1.86232992 48947
BEIDOU-3 M10 (C30)      
1 43246U 18029B   25158.08668450 -.00000096  00000+0  00000+0 0  9991
2 43246  54.5296 313.0649 0003837  30.0499 329.9541  1.86229294 48899
BEIDOU-2 IGSO-7 (C16)   
1 43539U 18057A   25159.60460478 -.00000029  00000+0  00000+0 0  9992
2 43539  55.1651 166.2924 0089483 236.5774 184.2057  1.00259818 25384
BEIDOU-3 M5 (C23)       
1 43581U 18062A   25159.38587411  .00000099  00000+0  00000+0 0  9993
2 43581  54.0998 195.0127 0005361 280.6518  79.3725  1.86228926 46678
BEIDOU-3 M6 (C24)       
1 43582U 18062B   25159.24998331  .00000099  00000+0  00000+0 0  9996
2 43582  54.0995 195.0065 0004445   4.4329 355.6554  1.86229763 46671
BEIDOU-3 M12 (C26)      
1 43602U 18067A   25159.18572447  .00000100  00000+0  00000+0 0  9996
2 43602  54.1929 193.7227 0007147  24.4556 335.6613  1.86227960 46157
BEIDOU-3 M11 (C25)      
1 43603U 18067B   25159.31974804  .00000100  00000+0  00000+0 0  9995
2 43603  54.1901 193.6825 0004014   7.0689 353.0199  1.86227444 46188
BEIDOU-3 M13 (C32)      
1 43622U 18072A   25159.27831939 -.00000070  00000+0  00000+0 0  9995
2 43622  56.2933  75.0305 0007483 319.5452  40.3939  1.86231509 45695
BEIDOU-3 M14 (C33)      
1 43623U 18072B   25159.14379798 -.00000070  00000+0  00000+0 0  9992
2 43623  56.2951  75.0286 0006070 348.1392  11.8408  1.86231523 45685
BEIDOU-3 M16 (C35)      
1 43647U 18078A   25159.30370966 -.00000093  00000+0  00000+0 0  9995
2 43647  54.4273 313.0644 0007174  32.3272 327.6975  1.86232422 45198
BEIDOU-3 M15 (C34)      
1 43648U 18078B   25158.89600225 -.00000094  00000+0  00000+0 0  9994
2 43648  54.4235 313.0803 0004252  48.2280 311.7895  1.86232496 45201
BEIDOU-3 G1 (C59)       
1 43683U 18085A   25159.60383016 -.00000260  00000+0  00000+0 0  9992
2 43683   2.6483 108.7495 0004658 352.0162 153.7305  1.00266497 24314
BEIDOU-3 M17 (C36)      
1 43706U 18093A   25159.05145152  .00000098  00000+0  00000+0 0  9991
2 43706  54.1831 194.9888 0010030 284.9183  75.0546  1.86228619 44570
BEIDOU-3 M18 (C37)      
1 43707U 18093B   25158.37698046  .00000094  00000+0  00000+0 0  9997
2 43707  54.1838 195.0033 0007865 311.7003  48.3146  1.86230118 44558
BEIDOU-3 IGSO-1 (C38)   
1 44204U 19023A   25154.63290878 -.00000236  00000+0  00000+0 0  9999
2 44204  58.1575  41.5588 0020434 223.9160 330.0431  1.00250213  3410
BEIDOU-2 G8 (C01)       
1 44231U 19027A   25159.77540481 -.00000230  00000+0  00000+0 0  9995
2 44231   1.6708  75.1122 0003908 259.5174 346.4240  1.00268091 22339
BEIDOU-3 IGSO-2 (C39)   
1 44337U 19035A   25158.91017078 -.00000035  00000+0  00000+0 0  9990
2 44337  55.2097 162.1485 0035746 210.6463 331.4293  1.00274276 21912
BEIDOU-3 M24 (C46)      
1 44542U 19061A   25159.52184160  .00000100  00000+0  00000+0 0  9994
2 44542  54.4109 195.3298 0007849 350.6033   9.4674  1.86229270 38838
BEIDOU-3 M23 (C45)      
1 44543U 19061B   25159.19212208  .00000099  00000+0  00000+0 0  9990
2 44543  54.4093 195.3094 0005350 329.7142  82.0353  1.86229534 38832
BEIDOU-3 IGSO-3 (C40)   
1 44709U 19073A   25159.75461972 -.00000216  00000+0  00000+0 0  9995
2 44709  55.4414 284.9275 0045160 183.2329 176.6864  1.00247647 20719
BEIDOU-3 M22 (C44)      
1 44793U 19078A   25158.82711708 -.00000095  00000+0  00000+0 0  9990
2 44793  54.2747 312.9694 0006168  41.3196 318.7082  1.86232319 37674
BEIDOU-3 M21 (C43)      
1 44794U 19078B   25158.96039711 -.00000094  00000+0  00000+0 0  9992
2 44794  54.2479 312.9335 0004112  40.0503 319.9610  1.86227914 37680
BEIDOU-3 M19 (C41)      
1 44864U 19090A   25159.48395304 -.00000069  00000+0  00000+0 0  9997
2 44864  56.2277  75.1754 0018180 291.7592 253.1630  1.86231855 37277
BEIDOU-3 M20 (C42)      
1 44865U 19090B   25159.24162497 -.00000070  00000+0  00000+0 0  9999
2 44865  56.2292  75.2173 0016088 305.3220 166.7835  1.86231739 37251
BEIDOU-3 G2 (C60)       
1 45344U 20017A   25159.80586488 -.00000124  00000+0  00000+0 0  9995
2 45344   2.8588  40.3030 0002336  23.4174 203.8495  1.00271958 19518
BEIDOU-3 G3 (C61)       
1 45807U 20040A   25160.46799193 -.00000335  00000+0  00000+0 0  9992
2 45807   1.5439  63.9131 0005234 350.2583 122.9270  1.00275479 18334
BEIDOU-3 G4 (C62)       
1 56564U 23066A   25160.32627352 -.00000090  00000+0  00000+0 0  9995
2 56564   1.2423 292.4334 0006531 182.1345  60.8906  1.00272234  7654
BEIDOU-3 M28 (C50)      
1 58654U 23207A   25159.04017065 -.00000072  00000+0  00000+0 0  9995
2 58654  55.4159  74.9590 0003443 328.1334  31.8394  1.86230042  9879
BEIDOU-3 M26 (C48)      
1 58655U 23207B   25159.37641647 -.00000070  00000+0  00000+0 0  9999
2 58655  55.4182  74.9335 0003507 302.3270  57.6336  1.86231780  9868
BEIDOU-3 M25 (C47)      
1 61186U 24168B   25158.60127821 -.00000095  00000+0  00000+0 0  9994
2 61186  54.8039 315.2300 0003218 296.5946  21.4472  1.86230383  4808
BEIDOU-3 M27 (C49)      
1 61187U 24168C   25159.62736587 -.00000091  00000+0  00000+0 0  9999
2 61187  54.7987 315.1791 0001705  37.2200  23.6454  1.86230449  2305
